{
  "type": "FeatureCollection",
  "features": [
    {
      "type": "Feature",
      "properties": {
        "norad_id": 33723,
        "name": "FENGYUN 1C DEB",
        "group": "fengyun-1c-debris",
        "lat": 27.998396683210473,
        "lon": -117.91806447545386,
        "alt_km": 910.0937987426641,
        "timestamp": "2025-12-02T19:35:50.843118+00:00",
        "meta_object_name": "FENGYUN 1C DEB",
        "meta_object_id": "1999-025DHL",
        "meta_epoch": "2025-11-30T11:06:07.081344",
        "meta_mean_motion": 14.13160086,
        "meta_eccentricity": 0.00983728,
        "meta_inclination": 99.1553,
        "meta_ra_of_asc_node": 54.7561,
        "meta_arg_of_pericenter": 5.6896,
        "meta_mean_anomaly": 56.2557,
        "meta_ephemeris_type": 0,
        "meta_classification_type": "U",
        "meta_norad_cat_id": 33723,
        "meta_element_set_no": 999,
        "meta_rev_at_epoch": 63450,
        "meta_bstar": 0.0020390753,
        "meta_mean_motion_dot": 3.948e-05,
        "meta_mean_motion_ddot": 0,
        "tle_line1": "1 33723U 99025DHL 25334.46258196  .00003948  00000+0  20391-2 0  9991",
        "tle_line2": "2 33723  99.1553  54.7561 0098372   5.6896  56.2557 14.13160086634501"
      },
      "geometry": {
        "type": "Point",
        "coordinates": [
          -117.91806447545386,
          27.998396683210473
        ]
      }
    },
    {
      "type": "Feature",
      "properties": {
        "norad_id": 33724,
        "name": "FENGYUN 1C DEB",
        "group": "fengyun-1c-debris",
        "lat": 16.81198852108887,
        "lon": -15.21624297207949,
        "alt_km": 846.0358923796666,
        "timestamp": "2025-12-02T19:35:50.843128+00:00",
        "meta_object_name": "FENGYUN 1C DEB",
        "meta_object_id": "1999-025DHM",
        "meta_epoch": "2025-12-01T18:59:47.545728",
        "meta_mean_motion": 14.19612162,
        "meta_eccentricity": 0.00269319,
        "meta_inclination": 98.6044,
        "meta_ra_of_asc_node": 346.4099,
        "meta_arg_of_pericenter": 213.4232,
        "meta_mean_anomaly": 328.0159,
        "meta_ephemeris_type": 0,
        "meta_classification_type": "U",
        "meta_norad_cat_id": 33724,
        "meta_element_set_no": 999,
        "meta_rev_at_epoch": 93806,
        "meta_bstar": 0.00047527563,
        "meta_mean_motion_dot": 9.64e-06,
        "meta_mean_motion_ddot": 0,
        "tle_line1": "1 33724U 99025DHM 25335.79152252  .00000964  00000+0  47528-3 0  9992",
        "tle_line2": "2 33724  98.6044 346.4099 0026931 213.4232 328.0159 14.19612162938062"
      },
      "geometry": {
        "type": "Point",
        "coordinates": [
          -15.21624297207949,
          16.81198852108887
        ]
      }
    },
    {
      "type": "Feature",
      "properties": {
        "norad_id": 33726,
        "name": "FENGYUN 1C DEB",
        "group": "fengyun-1c-debris",
        "lat": -19.13725442463797,
        "lon": -81.67960476454738,
        "alt_km": 955.3222378663486,
        "timestamp": "2025-12-02T19:35:50.843138+00:00",
        "meta_object_name": "FENGYUN 1C DEB",
        "meta_object_id": "1999-025DHP",
        "meta_epoch": "2025-12-02T06:55:34.688352",
        "meta_mean_motion": 14.1428324,
        "meta_eccentricity": 0.0193236,
        "meta_inclination": 98.6385,
        "meta_ra_of_asc_node": 100.8334,
        "meta_arg_of_pericenter": 60.93,
        "meta_mean_anomaly": 330.2977,
        "meta_ephemeris_type": 0,
        "meta_classification_type": "U",
        "meta_norad_cat_id": 33726,
        "meta_element_set_no": 999,
        "meta_rev_at_epoch": 91784,
        "meta_bstar": 0.00043106,
        "meta_mean_motion_dot": 9.43e-06,
        "meta_mean_motion_ddot": 0,
        "tle_line1": "1 33726U 99025DHP 25336.28859593  .00000943  00000+0  43106-3 0  9996",
        "tle_line2": "2 33726  98.6385 100.8334 0193236  60.9300 330.2977 14.14283240917842"
      },
      "geometry": {
        "type": "Point",
        "coordinates": [
          -81.67960476454738,
          -19.13725442463797
        ]
      }
    },
    {
      "type": "Feature",
      "properties": {
        "norad_id": 33728,
        "name": "FENGYUN 1C DEB",
        "group": "fengyun-1c-debris",
        "lat": -48.927866548250805,
        "lon": -159.14536159226523,
        "alt_km": 498.8362739928971,
        "timestamp": "2025-12-02T19:35:50.843149+00:00",
        "meta_object_name": "FENGYUN 1C DEB",
        "meta_object_id": "1999-025DHR",
        "meta_epoch": "2025-12-01T21:38:37.344768",
        "meta_mean_motion": 14.92395752,
        "meta_eccentricity": 0.01478107,
        "meta_inclination": 98.9818,
        "meta_ra_of_asc_node": 30.2685,
        "meta_arg_of_pericenter": 249.9818,
        "meta_mean_anomaly": 108.5432,
        "meta_ephemeris_type": 0,
        "meta_classification_type": "U",
        "meta_norad_cat_id": 33728,
        "meta_element_set_no": 999,
        "meta_rev_at_epoch": 98138,
        "meta_bstar": 0.00067922704,
        "meta_mean_motion_dot": 8.521e-05,
        "meta_mean_motion_ddot": 0,
        "tle_line1": "1 33728U 99025DHR 25335.90182112  .00008521  00000+0  67923-3 0  9995",
        "tle_line2": "2 33728  98.9818  30.2685 0147810 249.9818 108.5432 14.92395752981383"
      },
      "geometry": {
        "type": "Point",
        "coordinates": [
          -159.14536159226523,
          -48.927866548250805
        ]
      }
    },
    {
      "type": "Feature",
      "properties": {
        "norad_id": 33730,
        "name": "FENGYUN 1C DEB",
        "group": "fengyun-1c-debris",
        "lat": 74.33831908817918,
        "lon": -111.71501116059673,
        "alt_km": 661.6969119095647,
        "timestamp": "2025-12-02T19:35:50.843159+00:00",
        "meta_object_name": "FENGYUN 1C DEB",
        "meta_object_id": "1999-025DHT",
        "meta_epoch": "2025-11-27T20:57:44.098848",
        "meta_mean_motion": 14.63096088,
        "meta_eccentricity": 0.00406689,
        "meta_inclination": 99.058,
        "meta_ra_of_asc_node": 28.1817,
        "meta_arg_of_pericenter": 57.0936,
        "meta_mean_anomaly": 303.4166,
        "meta_ephemeris_type": 0,
        "meta_classification_type": "U",
        "meta_norad_cat_id": 33730,
        "meta_element_set_no": 999,
        "meta_rev_at_epoch": 95462,
        "meta_bstar": 0.0017238126,
        "meta_mean_motion_dot": 8.913e-05,
        "meta_mean_motion_ddot": 0,
        "tle_line1": "1 33730U 99025DHT 25331.87342707  .00008913  00000+0  17238-2 0  9996",
        "tle_line2": "2 33730  99.0580  28.1817 0040668  57.0936 303.4166 14.63096088954624"
      },
      "geometry": {
        "type": "Point",
        "coordinates": [
          -111.71501116059673,
          74.33831908817918
        ]
      }
    },
    {
      "type": "Feature",
      "properties": {
        "norad_id": 33731,
        "name": "FENGYUN 1C DEB",
        "group": "fengyun-1c-debris",
        "lat": -56.13039862562415,
        "lon": 164.4295518388451,
        "alt_km": 1002.0948641376535,
        "timestamp": "2025-12-02T19:35:50.843169+00:00",
        "meta_object_name": "FENGYUN 1C DEB",
        "meta_object_id": "1999-025DHU",
        "meta_epoch": "2025-11-28T07:46:14.335392",
        "meta_mean_motion": 13.95266632,
        "meta_eccentricity": 0.01296296,
        "meta_inclination": 99.4454,
        "meta_ra_of_asc_node": 354.1889,
        "meta_arg_of_pericenter": 95.0981,
        "meta_mean_anomaly": 266.4989,
        "meta_ephemeris_type": 0,
        "meta_classification_type": "U",
        "meta_norad_cat_id": 33731,
        "meta_element_set_no": 999,
        "meta_rev_at_epoch": 90248,
        "meta_bstar": 0.00078625858,
        "meta_mean_motion_dot": 1.095e-05,
        "meta_mean_motion_ddot": 0,
        "tle_line1": "1 33731U 99025DHU 25332.32377703  .00001095  00000+0  78626-3 0  9995",
        "tle_line2": "2 33731  99.4454 354.1889 0129629  95.0981 266.4989 13.95266632902483"
      },
      "geometry": {
        "type": "Point",
        "coordinates": [
          164.4295518388451,
          -56.13039862562415
        ]
      }
    },
    {
      "type": "Feature",
      "properties": {
        "norad_id": 33733,
        "name": "FENGYUN 1C DEB",
        "group": "fengyun-1c-debris",
        "lat": 26.021378741344137,
        "lon": 57.19475475894097,
        "alt_km": 846.2211620591725,
        "timestamp": "2025-12-02T19:35:50.843179+00:00",
        "meta_object_name": "FENGYUN 1C DEB",
        "meta_object_id": "1999-025DHW",
        "meta_epoch": "2025-12-01T05:07:55.247232",
        "meta_mean_motion": 14.3062472,
        "meta_eccentricity": 0.0081329,
        "meta_inclination": 99.0999,
        "meta_ra_of_asc_node": 60.0061,
        "meta_arg_of_pericenter": 202.8537,
        "meta_mean_anomaly": 213.8436,
        "meta_ephemeris_type": 0,
        "meta_classification_type": "U",
        "meta_norad_cat_id": 33733,
        "meta_element_set_no": 999,
        "meta_rev_at_epoch": 90283,
        "meta_bstar": 0.0047064,
        "meta_mean_motion_dot": 0.00012718,
        "meta_mean_motion_ddot": 0,
        "tle_line1": "1 33733U 99025DHW 25335.21383388  .00012718  00000+0  47064-2 0  9999",
        "tle_line2": "2 33733  99.0999  60.0061 0081329 202.8537 213.8436 14.30624720902837"
      },
      "geometry": {
        "type": "Point",
        "coordinates": [
          57.19475475894097,
          26.021378741344137
        ]
      }
    }
  ]
}